[{"OBJECT_NAME":"FGN-100-D2","OBJECT_ID":"2025-248G","EPOCH":"2026-03-09T00:05:30.712416","MEAN_MOTION":15.19697424,"ECCENTRICITY":0.00052703,"INCLINATION":45.4006,"RA_OF_ASC_NODE":298.0063,"ARG_OF_PERICENTER":203.9196,"MEAN_ANOMALY":156.1446,"EPHEMERIS_TYPE":0,"CLASSIFICATION_TYPE":"U","NORAD_CAT_ID":66299,"ELEMENT_SET_NO":999,"REV_AT_EPOCH":1927,"BSTAR":0.00030465999,"MEAN_MOTION_DOT":6.346e-5,"MEAN_MOTION_DDOT":0},{"OBJECT_NAME":"POEM","OBJECT_ID":"2022-072E","EPOCH":"2026-03-08T08:06:01.299456","MEAN_MOTION":15.22764653,"ECCENTRICITY":0.00236837,"INCLINATION":9.9515,"RA_OF_ASC_NODE":116.6548,"ARG_OF_PERICENTER":142.2805,"MEAN_ANOMALY":217.9074,"EPHEMERIS_TYPE":0,"CLASSIFICATION_TYPE":"U","NORAD_CAT_ID":52939,"ELEMENT_SET_NO":999,"REV_AT_EPOCH":20410,"BSTAR":0.00045784559,"MEAN_MOTION_DOT":0.00012084,"MEAN_MOTION_DDOT":0}]
